[
  {
    "OBJECT_NAME": "STARLINK-32716",
    "OBJECT_ID": "25034C",
    "EPOCH": "2025-11-11T02:31:49.512288",
    "MEAN_MOTION": 15.30192297,
    "ECCENTRICITY": 6.1e-06,
    "INCLINATION": 53.1651,
    "RA_OF_ASC_NODE": 88.7552,
    "ARG_OF_PERICENTER": 266.7411,
    "MEAN_ANOMALY": 93.3583,
    "EPHEMERIS_TYPE": 0,
    "CLASSIFICATION_TYPE": "U",
    "NORAD_CAT_ID": 63031,
    "ELEMENT_SET_NO": 999,
    "REV_AT_EPOCH": 4093,
    "BSTAR": 0.0011995,
    "MEAN_MOTION_DOT": 0.00035329,
    "MEAN_MOTION_DDOT": 0.0,
    "TLE_LINE1": "1 63031U 25034C   25315.10543417  .00035329  00000+0  11995-2 0  9996",
    "TLE_LINE2": "2 63031  53.1651  88.7552 0000061 266.7411  93.3583 15.30192297 40931",
    "COMMENT": "Grouped by shell and plane from TLE"
  },
  {
    "OBJECT_NAME": "STARLINK-32776",
    "OBJECT_ID": "25034D",
    "EPOCH": "2025-11-11T02:07:38.950464",
    "MEAN_MOTION": 15.30277144,
    "ECCENTRICITY": 0.0001204,
    "INCLINATION": 53.1635,
    "RA_OF_ASC_NODE": 89.3601,
    "ARG_OF_PERICENTER": 62.1234,
    "MEAN_ANOMALY": 297.9889,
    "EPHEMERIS_TYPE": 0,
    "CLASSIFICATION_TYPE": "U",
    "NORAD_CAT_ID": 63032,
    "ELEMENT_SET_NO": 999,
    "REV_AT_EPOCH": 4092,
    "BSTAR": 0.0011402,
    "MEAN_MOTION_DOT": 0.00033645,
    "MEAN_MOTION_DDOT": 0.0,
    "TLE_LINE1": "1 63032U 25034D   25315.08864526  .00033645  00000+0  11402-2 0  9993",
    "TLE_LINE2": "2 63032  53.1635  89.3601 0001204  62.1234 297.9889 15.30277144 40922",
    "COMMENT": "Grouped by shell and plane from TLE"
  },
  {
    "OBJECT_NAME": "STARLINK-32810",
    "OBJECT_ID": "25034J",
    "EPOCH": "2025-11-11T01:43:22.768320",
    "MEAN_MOTION": 15.30229254,
    "ECCENTRICITY": 0.0001215,
    "INCLINATION": 53.1571,
    "RA_OF_ASC_NODE": 89.2545,
    "ARG_OF_PERICENTER": 64.0694,
    "MEAN_ANOMALY": 296.0432,
    "EPHEMERIS_TYPE": 0,
    "CLASSIFICATION_TYPE": "U",
    "NORAD_CAT_ID": 63037,
    "ELEMENT_SET_NO": 999,
    "REV_AT_EPOCH": 4092,
    "BSTAR": 0.0016256999999999999,
    "MEAN_MOTION_DOT": 0.00048147,
    "MEAN_MOTION_DDOT": 0.0,
    "TLE_LINE1": "1 63037U 25034J   25315.07179130  .00048147  00000+0  16257-2 0  9993",
    "TLE_LINE2": "2 63037  53.1571  89.2545 0001215  64.0694 296.0432 15.30229254 40928",
    "COMMENT": "Grouped by shell and plane from TLE"
  },
  {
    "OBJECT_NAME": "STARLINK-32795",
    "OBJECT_ID": "25034P",
    "EPOCH": "2025-11-11T02:28:48.427392",
    "MEAN_MOTION": 15.30221018,
    "ECCENTRICITY": 0.0002099,
    "INCLINATION": 53.1561,
    "RA_OF_ASC_NODE": 88.7389,
    "ARG_OF_PERICENTER": 90.4663,
    "MEAN_ANOMALY": 269.6578,
    "EPHEMERIS_TYPE": 0,
    "CLASSIFICATION_TYPE": "U",
    "NORAD_CAT_ID": 63042,
    "ELEMENT_SET_NO": 999,
    "REV_AT_EPOCH": 4093,
    "BSTAR": 0.00085352,
    "MEAN_MOTION_DOT": 0.00025022,
    "MEAN_MOTION_DDOT": 0.0,
    "TLE_LINE1": "1 63042U 25034P   25315.10333828  .00025022  00000+0  85352-3 0  9999",
    "TLE_LINE2": "2 63042  53.1561  88.7389 0002099  90.4663 269.6578 15.30221018 40931",
    "COMMENT": "Grouped by shell and plane from TLE"
  },
  {
    "OBJECT_NAME": "STARLINK-32738",
    "OBJECT_ID": "25034T",
    "EPOCH": "2025-11-11T02:21:12.531744",
    "MEAN_MOTION": 15.3021538,
    "ECCENTRICITY": 0.0001977,
    "INCLINATION": 53.1562,
    "RA_OF_ASC_NODE": 88.7085,
    "ARG_OF_PERICENTER": 82.6959,
    "MEAN_ANOMALY": 277.4267,
    "EPHEMERIS_TYPE": 0,
    "CLASSIFICATION_TYPE": "U",
    "NORAD_CAT_ID": 63046,
    "ELEMENT_SET_NO": 999,
    "REV_AT_EPOCH": 4093,
    "BSTAR": 0.00056413,
    "MEAN_MOTION_DOT": 0.00016394,
    "MEAN_MOTION_DDOT": 0.0,
    "TLE_LINE1": "1 63046U 25034T   25315.09806171  .00016394  00000+0  56413-3 0  9995",
    "TLE_LINE2": "2 63046  53.1562  88.7085 0001977  82.6959 277.4267 15.30215380 40931",
    "COMMENT": "Grouped by shell and plane from TLE"
  },
  {
    "OBJECT_NAME": "STARLINK-32790",
    "OBJECT_ID": "25034V",
    "EPOCH": "2025-11-11T02:00:05.766048",
    "MEAN_MOTION": 15.30222163,
    "ECCENTRICITY": 0.0002221,
    "INCLINATION": 53.1533,
    "RA_OF_ASC_NODE": 89.3258,
    "ARG_OF_PERICENTER": 81.72,
    "MEAN_ANOMALY": 278.4052,
    "EPHEMERIS_TYPE": 0,
    "CLASSIFICATION_TYPE": "U",
    "NORAD_CAT_ID": 63048,
    "ELEMENT_SET_NO": 999,
    "REV_AT_EPOCH": 4092,
    "BSTAR": 0.0006455,
    "MEAN_MOTION_DOT": 0.00018821,
    "MEAN_MOTION_DDOT": 0.0,
    "TLE_LINE1": "1 63048U 25034V   25315.08340007  .00018821  00000+0  64550-3 0  9995",
    "TLE_LINE2": "2 63048  53.1533  89.3258 0002221  81.7200 278.4052 15.30222163 40921",
    "COMMENT": "Grouped by shell and plane from TLE"
  },
  {
    "OBJECT_NAME": "STARLINK-34629",
    "OBJECT_ID": "25150A",
    "EPOCH": "2025-11-10T15:10:15.180096",
    "MEAN_MOTION": 15.42769955,
    "ECCENTRICITY": 0.0002983,
    "INCLINATION": 70.0006,
    "RA_OF_ASC_NODE": 80.633,
    "ARG_OF_PERICENTER": 262.0105,
    "MEAN_ANOMALY": 98.0738,
    "EPHEMERIS_TYPE": 0,
    "CLASSIFICATION_TYPE": "U",
    "NORAD_CAT_ID": 64790,
    "ELEMENT_SET_NO": 999,
    "REV_AT_EPOCH": 1853,
    "BSTAR": 0.0019995,
    "MEAN_MOTION_DOT": 0.00088593,
    "MEAN_MOTION_DDOT": 0.0,
    "TLE_LINE1": "1 64790U 25150A   25314.63212014  .00088593  00000+0  19995-2 0  9990",
    "TLE_LINE2": "2 64790  70.0006  80.6330 0002983 262.0105  98.0738 15.42769955 18534",
    "COMMENT": "Grouped by shell and plane from TLE"
  },
  {
    "OBJECT_NAME": "STARLINK-34641",
    "OBJECT_ID": "25150H",
    "EPOCH": "2025-11-10T11:05:06.292032",
    "MEAN_MOTION": 15.42741416,
    "ECCENTRICITY": 0.0003457,
    "INCLINATION": 69.9984,
    "RA_OF_ASC_NODE": 80.8335,
    "ARG_OF_PERICENTER": 209.2216,
    "MEAN_ANOMALY": 150.8773,
    "EPHEMERIS_TYPE": 0,
    "CLASSIFICATION_TYPE": "U",
    "NORAD_CAT_ID": 64797,
    "ELEMENT_SET_NO": 999,
    "REV_AT_EPOCH": 1934,
    "BSTAR": 0.0019368,
    "MEAN_MOTION_DOT": 0.00085701,
    "MEAN_MOTION_DDOT": 0.0,
    "TLE_LINE1": "1 64797U 25150H   25314.46187838  .00085701  00000+0  19368-2 0  9995",
    "TLE_LINE2": "2 64797  69.9984  80.8335 0003457 209.2216 150.8773 15.42741416 19341",
    "COMMENT": "Grouped by shell and plane from TLE"
  },
  {
    "OBJECT_NAME": "STARLINK-34662",
    "OBJECT_ID": "25150K",
    "EPOCH": "2025-11-10T18:11:14.015040",
    "MEAN_MOTION": 15.4274644,
    "ECCENTRICITY": 0.0003746,
    "INCLINATION": 70.001,
    "RA_OF_ASC_NODE": 80.2679,
    "ARG_OF_PERICENTER": 267.0176,
    "MEAN_ANOMALY": 93.0577,
    "EPHEMERIS_TYPE": 0,
    "CLASSIFICATION_TYPE": "U",
    "NORAD_CAT_ID": 64799,
    "ELEMENT_SET_NO": 999,
    "REV_AT_EPOCH": 1855,
    "BSTAR": 0.0016045,
    "MEAN_MOTION_DOT": 0.00070848,
    "MEAN_MOTION_DDOT": 0.0,
    "TLE_LINE1": "1 64799U 25150K   25314.75780110  .00070848  00000+0  16045-2 0  9996",
    "TLE_LINE2": "2 64799  70.0010  80.2679 0003746 267.0176  93.0577 15.42746440 18553",
    "COMMENT": "Grouped by shell and plane from TLE"
  },
  {
    "OBJECT_NAME": "STARLINK-34658",
    "OBJECT_ID": "25150N",
    "EPOCH": "2025-11-10T10:59:24.359712",
    "MEAN_MOTION": 15.42732647,
    "ECCENTRICITY": 0.000286,
    "INCLINATION": 70.0011,
    "RA_OF_ASC_NODE": 80.8197,
    "ARG_OF_PERICENTER": 277.0502,
    "MEAN_ANOMALY": 83.0354,
    "EPHEMERIS_TYPE": 0,
    "CLASSIFICATION_TYPE": "U",
    "NORAD_CAT_ID": 64802,
    "ELEMENT_SET_NO": 999,
    "REV_AT_EPOCH": 1851,
    "BSTAR": 0.0017862,
    "MEAN_MOTION_DOT": 0.00078928,
    "MEAN_MOTION_DDOT": 0.0,
    "TLE_LINE1": "1 64802U 25150N   25314.45792083  .00078928  00000+0  17862-2 0  9995",
    "TLE_LINE2": "2 64802  70.0011  80.8197 0002860 277.0502  83.0354 15.42732647 18512",
    "COMMENT": "Grouped by shell and plane from TLE"
  },
  {
    "OBJECT_NAME": "STARLINK-34620",
    "OBJECT_ID": "25150P",
    "EPOCH": "2025-11-10T15:27:50.518080",
    "MEAN_MOTION": 15.42740936,
    "ECCENTRICITY": 0.000336,
    "INCLINATION": 70.001,
    "RA_OF_ASC_NODE": 80.2646,
    "ARG_OF_PERICENTER": 270.5859,
    "MEAN_ANOMALY": 89.4938,
    "EPHEMERIS_TYPE": 0,
    "CLASSIFICATION_TYPE": "U",
    "NORAD_CAT_ID": 64803,
    "ELEMENT_SET_NO": 999,
    "REV_AT_EPOCH": 1854,
    "BSTAR": 0.0014485000000000001,
    "MEAN_MOTION_DOT": 0.00063875,
    "MEAN_MOTION_DDOT": 0.0,
    "TLE_LINE1": "1 64803U 25150P   25314.64433470  .00063875  00000+0  14485-2 0  9992",
    "TLE_LINE2": "2 64803  70.0010  80.2646 0003360 270.5859  89.4938 15.42740936 18545",
    "COMMENT": "Grouped by shell and plane from TLE"
  },
  {
    "OBJECT_NAME": "STARLINK-34663",
    "OBJECT_ID": "25150T",
    "EPOCH": "2025-11-10T11:37:00.732864",
    "MEAN_MOTION": 15.42721838,
    "ECCENTRICITY": 0.0004669,
    "INCLINATION": 69.9989,
    "RA_OF_ASC_NODE": 80.913,
    "ARG_OF_PERICENTER": 296.2195,
    "MEAN_ANOMALY": 63.8507,
    "EPHEMERIS_TYPE": 0,
    "CLASSIFICATION_TYPE": "U",
    "NORAD_CAT_ID": 64807,
    "ELEMENT_SET_NO": 999,
    "REV_AT_EPOCH": 1851,
    "BSTAR": 0.0018881999999999998,
    "MEAN_MOTION_DOT": 0.00083479,
    "MEAN_MOTION_DDOT": 0.0,
    "TLE_LINE1": "1 64807U 25150T   25314.48403626  .00083479  00000+0  18882-2 0  9995",
    "TLE_LINE2": "2 64807  69.9989  80.9130 0004669 296.2195  63.8507 15.42721838 18512",
    "COMMENT": "Grouped by shell and plane from TLE"
  },
  {
    "OBJECT_NAME": "STARLINK-34608",
    "OBJECT_ID": "25150W",
    "EPOCH": "2025-11-10T17:56:27.106944",
    "MEAN_MOTION": 15.42743791,
    "ECCENTRICITY": 0.0003405,
    "INCLINATION": 70.0023,
    "RA_OF_ASC_NODE": 80.2294,
    "ARG_OF_PERICENTER": 271.0044,
    "MEAN_ANOMALY": 89.0748,
    "EPHEMERIS_TYPE": 0,
    "CLASSIFICATION_TYPE": "U",
    "NORAD_CAT_ID": 64810,
    "ELEMENT_SET_NO": 999,
    "REV_AT_EPOCH": 1855,
    "BSTAR": 0.0018626,
    "MEAN_MOTION_DOT": 0.00082384,
    "MEAN_MOTION_DDOT": 0.0,
    "TLE_LINE1": "1 64810U 25150W   25314.74753596  .00082384  00000+0  18626-2 0  9992",
    "TLE_LINE2": "2 64810  70.0023  80.2294 0003405 271.0044  89.0748 15.42743791 18556",
    "COMMENT": "Grouped by shell and plane from TLE"
  }
]